#aV2010  1 30  0  0   .00000000      96 DD+AD WGS84 FIT  NGA
## 1568 518400.00000000   900.00000000 55226  .0000000000000
+   32     1  2  3  4  5  6  7  8  9 10 11 12 13 14 15 16 17
+         18 19 20 21 22 23 24 25 26 27 28 29 30 31 32  0  0
+          0  0  0  0  0  0  0  0  0  0  0  0  0  0  0  0  0
+          0  0  0  0  0  0  0  0  0  0  0  0  0  0  0  0  0
+          0  0  0  0  0  0  0  0  0  0  0  0  0  0  0  0  0
++         0  0  0  0  0  0  0  0  0  0  0  0  0  0  0  0  0
++         0  0  0  0  0  0  0  0  0  0  0  0  0  0  0  0  0
++         0  0  0  0  0  0  0  0  0  0  0  0  0  0  0  0  0
++         0  0  0  0  0  0  0  0  0  0  0  0  0  0  0  0  0
++         0  0  0  0  0  0  0  0  0  0  0  0  0  0  0  0  0
%c cc cc ccc ccc cccc cccc cccc cccc ccccc ccccc ccccc ccccc
%c cc cc ccc ccc cccc cccc cccc cccc ccccc ccccc ccccc ccccc
%f  0.0000000  0.000000000  0.00000000000  0.000000000000000
%f  0.0000000  0.000000000  0.00000000000  0.000000000000000
%i    0    0    0    0      0      0      0      0         0
%i    0    0    0    0      0      0      0      0         0
/*      NGA, ST. LOUIS,MO.                                  
/*   EPHEMERIS COMPUTED FROM  3 DAYS OF DATA                
/* CCCCCCCCCCCCCCCCCCCCCCCCCCCCCCCCCCCCCCCCCCCCCCCCCCCCCCCCC
/* CCCCCCCCCCCCCCCCCCCCCCCCCCCCCCCCCCCCCCCCCCCCCCCCCCCCCCCCC
*  2010  1 30 15 30   .00000000                                                 
P  1 -15146.640719  -3622.213967  21435.685640    -84.220030                    
V  1  -1285.912050 -27396.966336  -5382.157283      -.034987                    
P  2  -3657.346726 -17665.630327  19570.454408    221.275768                    
V  2  22949.973803   9782.626441  12641.499699       .041735                    
P  3  -2070.820784  19495.147318 -18119.652590    509.074883                    
V  3 -18650.444297  12855.130625  16629.524726       .051045                    
P  4  11715.525496 -11218.997143  20912.631779      2.982944                    
V  4  23800.331023  12698.903938  -6105.818511       .092750                    
P  5  -2227.251350 -26404.083554   -917.569875    -11.975686                    
V  5   2853.957084  -1317.769573  31759.543551       .031300                    
P  6  -7124.250999  19786.310619 -15975.913011    255.583771                    
V  6 -18252.449691  10166.835971  20616.977632      -.040298                    
P  7  24461.359537   5430.642032  -9050.390636      3.563584                    
V  7   9208.782931   7102.958528  29019.432216      -.005672                    
P  8  18843.758387  -3078.474528 -18707.947319      2.732939                    
V  8  19824.876484  12549.459933  17415.136883       .004121                    
P  9 -18959.234144 -16178.759286  -9893.189607    103.113692                    
V  9  11264.788445   3233.961325 -28776.779526       .022638                    
P 10   2543.219318 -25769.236520   4809.226349    -34.154453                    
V 10   3471.571012   6285.194225  31052.115007      -.009307                    
P 11  23056.147336  11638.087882  -7203.294585    -42.581231                    
V 11  -9644.479981   2178.383805 -27985.579651      -.020778                    
P 12 -11642.039989 -18133.016318  15677.801385   -156.407641                    
V 12    714.646103 -19784.639211 -22297.334207       .048563                    
P 13  22903.649926  -3316.320718  12915.375033    306.624169                    
V 13 -13684.703843   9427.401558  26412.155618      -.000923                    
P 14 -21568.515026  15120.896607   2990.558528      6.096179                    
V 14  -4164.785683     97.633385 -32116.427184       .043676                    
P 15  -5218.555104 -14769.554978 -21414.420397   -310.173898                    
V 15  22849.537811 -14912.710846   4817.593401       .025840                    
P 16  -3170.123244  25593.752124   5797.959240    -36.134575                    
V 16  -2843.314185  -7260.392584  31002.205119      -.040734                    
P 17  20508.136208 -16213.856863   4086.047337    125.643793                    
V 17   5903.627768   -213.713261 -31315.450042       .034098                    
P 18 -15524.200550   1285.152151 -21248.769610     45.509657                    
V 18  -1166.189170 -27655.538105  -1180.352929       .026522                    
P 19   6127.879058  14015.511409 -21666.585182    -12.656576                    
V 19 -24322.945969  13088.075235   1868.526183      -.022437                    
P 20  14034.706678  14169.718114  17433.896634     62.287643                    
V 20   -110.679419  22543.783239 -18035.243414      -.007637                    
P 21 -23585.143390  -1976.305839 -12352.001167    -37.369941                    
V 21 -12948.037843  -9755.128515  25030.182622      -.024779                    
P 22 -12558.288576  15186.396221 -17612.555313    180.322667                    
V 22  -2711.180670 -22724.039654 -17579.505793      -.010882                    
P 23  16970.737216   5236.492433  19817.825836    381.141645                    
V 23 -20580.337153  14407.273530  13502.172285      -.009079                    
P 24 -23790.881711 -11116.541451  -2945.514264    258.171783                    
V 24  -1700.107097  -4851.360075  31354.111811       .032719                    
P 25  24938.586018   8583.195478  -1662.651787     89.757576                    
V 25   1395.624161   3392.036924  32043.241540       .072521                    
P 26 -24511.252394   8869.376962  -6789.845572    -13.995095                    
V 26   6111.422828  -4962.538179 -30614.509105      -.033310                    
P 27 -18039.958977 -15828.663224 -10791.921347    121.756914                    
V 27  14320.998937   3941.167841 -27838.872883       .033324                    
P 28  12825.299497 -12415.941860 -19099.316980    -22.888781                    
V 28   2052.692165  25291.070587 -15004.513022       .004856                    
P 29 -21503.955906    375.262878  15654.549282     94.091689                    
V 29  15777.842925 -12002.775957  22123.049895       .030188                    
P 30 -15102.084146  -7403.240763  20184.830723    215.157771                    
V 30  -1593.984788 -26479.730386 -10644.866775       .033279                    
P 31  -8857.183365  12266.430678  22056.126965    -53.404367                    
V 31 -24427.755897 -12473.858535  -2742.230522       .014912                    
P 32   8065.475576  22397.883089  12462.787166    105.867833                    
V 32  -2437.678098  15079.539328 -25968.400586      -.082100                    
EOF
